[{"OBJECT_NAME":"STARLINK-5340","OBJECT_ID":"2023-065D","EPOCH":"2026-03-08T17:11:51.141696","MEAN_MOTION":15.02532681,"ECCENTRICITY":0.00012898,"INCLINATION":43.0035,"RA_OF_ASC_NODE":203.0212,"ARG_OF_PERICENTER":264.8882,"MEAN_ANOMALY":95.1813,"EPHEMERIS_TYPE":0,"CLASSIFICATION_TYPE":"U","NORAD_CAT_ID":56506,"ELEMENT_SET_NO":999,"REV_AT_EPOCH":15662,"BSTAR":5.703747e-6,"MEAN_MOTION_DOT":-1.27e-6,"MEAN_MOTION_DDOT":0},{"OBJECT_NAME":"OBJECT A","OBJECT_ID":"2024-018A","EPOCH":"2026-03-09T23:31:34.722336","MEAN_MOTION":14.39019523,"ECCENTRICITY":0.04318583,"INCLINATION":58.6872,"RA_OF_ASC_NODE":217.3493,"ARG_OF_PERICENTER":349.6639,"MEAN_ANOMALY":9.5713,"EPHEMERIS_TYPE":0,"CLASSIFICATION_TYPE":"U","NORAD_CAT_ID":58849,"ELEMENT_SET_NO":999,"REV_AT_EPOCH":11089,"BSTAR":0.00018648837,"MEAN_MOTION_DOT":1.516e-5,"MEAN_MOTION_DDOT":0}]
